CTC1_L_00165016-03
1 59839U 23730PB  26037.47802083  .00000000  00000+0  00000-0 0  9998
2 59839  85.0000 180.0000 0000000   0.0000   0.0000 13.98209858    12
CTC1_L_00165016-04
1 59840U 22255KQ  26037.47802083  .00000000  00000+0  00000-0 0  9991
2 59840  85.0000 180.0000 0000000   0.0000  90.0000 13.98209858    13
CTC1_L_00165017-01
1 59841U 23864IP  26037.47802083  .00000000  00000+0  00000-0 0  9999
2 59841  85.0000 192.0000 0000000   0.0000 192.0000 13.98209858    10
CTC1_L_00165017-02
1 59842U 25985SW  26037.47802083  .00000000  00000+0  00000-0 0  9996
2 59842  85.0000 192.0000 0000000   0.0000 282.0000 13.98209858    11
CTC1_L_00165017-03
1 59843U 23405HD  26037.47802083  .00000000  00000+0  00000-0 0  9992
2 59843  85.0000 192.0000 0000000   0.0000  12.0000 13.98209858    13
CTC1_L_00165017-04
1 59844U 25331AQ  26037.47802083  .00000000  00000+0  00000-0 0  9993
2 59844  85.0000 192.0000 0000000   0.0000 102.0000 13.98209858    14
CTC1_L_00165018-01
1 59845U 24609MX  26037.47802083  .00000000  00000+0  00000-0 0  9991
2 59845  85.0000 204.0000 0000000   0.0000 204.0000 13.98209858    12
CTC1_L_00165018-02
1 59846U 26140CU  26037.47802083  .00000000  00000+0  00000-0 0  9994
2 59846  85.0000 204.0000 0000000   0.0000 294.0000 13.98209858    12
CTC1_L_00165018-03
1 59847U 24347HK  26037.47802083  .00000000  00000+0  00000-0 0  9992
2 59847  85.0000 204.0000 0000000   0.0000  24.0000 13.98209858    14
CTC1_L_00165018-04
1 59848U 26559CP  26037.47802083  .00000000  00000+0  00000-0 0  9990
2 59848  85.0000 204.0000 0000000   0.0000 114.0000 13.98209858    15
CTC1_L_00165019-01
1 59849U 25093FC  26037.47802083  .00000000  00000+0  00000-0 0  9993
2 59849  85.0000 216.0000 0000000   0.0000 216.0000 13.98209858    12
CTC1_L_00165019-02
1 59850U 26751CS  26037.47802083  .00000000  00000+0  00000-0 0  9997
2 59850  85.0000 216.0000 0000000   0.0000 306.0000 13.98209858    14
CTC1_L_00165019-03
1 59851U 26375MR  26037.47802083  .00000000  00000+0  00000-0 0  9990
2 59851  85.0000 216.0000 0000000   0.0000  36.0000 13.98209858    15
CTC1_L_00165019-04
1 59852U 25284OJ  26037.47802083  .00000000  00000+0  00000-0 0  9999
2 59852  85.0000 216.0000 0000000   0.0000 126.0000 13.98209858    16
CTC1_L_00165020-01
1 59853U 24099FX  26037.47802083  .00000000  00000+0  00000-0 0  9993
2 59853  85.0000 228.0000 0000000   0.0000 228.0000 13.98209858    13
CTC1_L_00165020-02
1 59854U 22668HV  26037.47802083  .00000000  00000+0  00000-0 0  9994
2 59854  85.0000 228.0000 0000000   0.0000 318.0000 13.98209858    14
CTC1_L_00165020-03
1 59855U 22414SK  26037.47802083  .00000000  00000+0  00000-0 0  9994
2 59855  85.0000 228.0000 0000000   0.0000  48.0000 13.98209858    15
CTC1_L_00165020-04
1 59856U 24366CJ  26037.47802083  .00000000  00000+0  00000-0 0  9993
2 59856  85.0000 228.0000 0000000   0.0000 138.0000 13.98209858    16
CTC1_L_00165021-01
1 59857U 23944BV  26037.47802083  .00000000  00000+0  00000-0 0  9995
2 59857  85.0000 240.0000 0000000   0.0000 240.0000 13.98209858    15
CTC1_L_00165021-02
1 59858U 24398LI  26037.47802083  .00000000  00000+0  00000-0 0  9990
2 59858  85.0000 240.0000 0000000   0.0000 330.0000 13.98209858    16
CTC1_L_00165021-03
1 59859U 26550HC  26037.47802083  .00000000  00000+0  00000-0 0  9993
2 59859  85.0000 240.0000 0000000   0.0000  60.0000 13.98209858    17
CTC1_L_00165021-04
1 59860U 23505XQ  26037.47802083  .00000000  00000+0  00000-0 0  9992
2 59860  85.0000 240.0000 0000000   0.0000 150.0000 13.98209858    19
CTC1_L_00165022-01
1 59861U 23111IS  26037.47802083  .00000000  00000+0  00000-0 0  9996
2 59861  85.0000 252.0000 0000000   0.0000 252.0000 13.98209858    16
CTC1_L_00165022-02
1 59862U 26644WS  26037.47802083  .00000000  00000+0  00000-0 0  9991
2 59862  85.0000 252.0000 0000000   0.0000 342.0000 13.98209858    17
CTC1_L_00165022-03
1 59863U 24688VH  26037.47802083  .00000000  00000+0  00000-0 0  9998
2 59863  85.0000 252.0000 0000000   0.0000  72.0000 13.98209858    18
CTC1_L_00165022-04
1 59864U 23561ZY  26037.47802083  .00000000  00000+0  00000-0 0  9998
2 59864  85.0000 252.0000 0000000   0.0000 162.0000 13.98209858    19
CTC1_L_00165023-01
1 59865U 25902QL  26037.47802083  .00000000  00000+0  00000-0 0  9990
2 59865  85.0000 264.0000 0000000   0.0000 264.0000 13.98209858    16
CTC1_L_00165023-02
1 59866U 22987CC  26037.47802083  .00000000  00000+0  00000-0 0  9991
2 59866  85.0000 264.0000 0000000   0.0000 354.0000 13.98209858    17
CTC1_L_00165023-03
1 59867U 22705LR  26037.47802083  .00000000  00000+0  00000-0 0  9990
2 59867  85.0000 264.0000 0000000   0.0000  84.0000 13.98209858    18
CTC1_L_00165023-04
1 59868U 25413FQ  26037.47802083  .00000000  00000+0  00000-0 0  9990
2 59868  85.0000 264.0000 0000000   0.0000 174.0000 13.98209858    19
CTC1_L_00165024-01
1 59869U 25159BY  26037.47802083  .00000000  00000+0  00000-0 0  9998
2 59869  85.0000 276.0000 0000000   0.0000 276.0000 13.98209858    16
CTC1_L_00165024-02
1 59870U 22632EX  26037.47802083  .00000000  00000+0  00000-0 0  9993
2 59870  85.0000 276.0000 0000000   0.0000   6.0000 13.98209858    19
CTC1_L_00165024-03
1 59871U 24087SW  26037.47802083  .00000000  00000+0  00000-0 0  9990
2 59871  85.0000 276.0000 0000000   0.0000  96.0000 13.98209858    19
CTC1_L_00165024-04
1 59872U 23976OA  26037.47802083  .00000000  00000+0  00000-0 0  9997
2 59872  85.0000 276.0000 0000000   0.0000 186.0000 13.98209858    10
CTC1_L_00165025-01
1 59873U 24411ZY  26037.47802083  .00000000  00000+0  00000-0 0  9993
2 59873  85.0000 288.0000 0000000   0.0000 288.0000 13.98209858    17
CTC1_L_00165025-02
1 59874U 22609FA  26037.47802083  .00000000  00000+0  00000-0 0  9991
2 59874  85.0000 288.0000 0000000   0.0000  18.0000 13.98209858    19
CTC1_L_00165025-03
1 59875U 23238KY  26037.47802083  .00000000  00000+0  00000-0 0  9991
2 59875  85.0000 288.0000 0000000   0.0000 108.0000 13.98209858    10
CTC1_L_00165025-04
1 59876U 24265PZ  26037.47802083  .00000000  00000+0  00000-0 0  9993
2 59876  85.0000 288.0000 0000000   0.0000 198.0000 13.98209858    10
CTC1_L_00165026-01
1 59877U 24439KV  26037.47802083  .00000000  00000+0  00000-0 0  9997
2 59877  85.0000 300.0000 0000000   0.0000 300.0000 13.98209858    11
CTC1_L_00165026-02
1 59878U 26513KW  26037.47802083  .00000000  00000+0  00000-0 0  9993
2 59878  85.0000 300.0000 0000000   0.0000  30.0000 13.98209858    12
CTC1_L_00165026-03
1 59879U 24700UO  26037.47802083  .00000000  00000+0  00000-0 0  9990
2 59879  85.0000 300.0000 0000000   0.0000 120.0000 13.98209858    13
CTC1_L_00165026-04
1 59880U 22998AA  26037.47802083  .00000000  00000+0  00000-0 0  9999
2 59880  85.0000 300.0000 0000000   0.0000 210.0000 13.98209858    15
CTC1_L_00165027-01
1 59881U 23428YW  26037.47802083  .00000000  00000+0  00000-0 0  9999
2 59881  85.0000 312.0000 0000000   0.0000 312.0000 13.98209858    12
CTC1_L_00165027-02
1 59882U 22677AX  26037.47802083  .00000000  00000+0  00000-0 0  9995
2 59882  85.0000 312.0000 0000000   0.0000  42.0000 13.98209858    13
CTC1_L_00165027-03
1 59883U 22354VL  26037.47802083  .00000000  00000+0  00000-0 0  9998
2 59883  85.0000 312.0000 0000000   0.0000 132.0000 13.98209858    14
CTC1_L_00165027-04
1 59884U 24221YG  26037.47802083  .00000000  00000+0  00000-0 0  9994
2 59884  85.0000 312.0000 0000000   0.0000 222.0000 13.98209858    15
CTC1_L_00165028-01
1 59885U 23916FF  26037.47802083  .00000000  00000+0  00000-0 0  9995
2 59885  85.0000 324.0000 0000000   0.0000 324.0000 13.98209858    12
CTC1_L_00165028-02
1 59886U 22474N   26037.47802083  .00000000  00000+0  00000-0 0  9994
2 59886  85.0000 324.0000 0000000   0.0000  54.0000 13.98209858    13
CTC1_L_00165028-03
1 59887U 22998ZR  26037.47802083  .00000000  00000+0  00000-0 0  9996
2 59887  85.0000 324.0000 0000000   0.0000 144.0000 13.98209858    14
CTC1_L_00165028-04
1 59888U 24798TQ  26037.47802083  .00000000  00000+0  00000-0 0  9997
2 59888  85.0000 324.0000 0000000   0.0000 234.0000 13.98209858    15
CTC1_L_00165029-01
1 59889U 24140XB  26037.47802083  .00000000  00000+0  00000-0 0  9999
2 59889  85.0000 336.0000 0000000   0.0000 336.0000 13.98209858    12
CTC1_L_00165029-02
1 59890U 26479XA  26037.47802083  .00000000  00000+0  00000-0 0  9998
2 59890  85.0000 336.0000 0000000   0.0000  66.0000 13.98209858    14
CTC1_L_00165029-03
1 59891U 23469MX  26037.47802083  .00000000  00000+0  00000-0 0  9995
2 59891  85.0000 336.0000 0000000   0.0000 156.0000 13.98209858    15
CTC1_L_00165029-04
1 59892U 23217XA  26037.47802083  .00000000  00000+0  00000-0 0  9997
2 59892  85.0000 336.0000 0000000   0.0000 246.0000 13.98209858    16
CTC1_L_00165030-01
1 59893U 22746PY  26037.47802083  .00000000  00000+0  00000-0 0  9994
2 59893  85.0000 348.0000 0000000   0.0000 348.0000 13.98209858    13
CTC1_L_00165030-02
1 59894U 22883LG  26037.47802083  .00000000  00000+0  00000-0 0  9997
2 59894  85.0000 348.0000 0000000   0.0000  78.0000 13.98209858    14
CTC1_L_00165030-03
1 59895U 26937MH  26037.47802083  .00000000  00000+0  00000-0 0  9992
2 59895  85.0000 348.0000 0000000   0.0000 168.0000 13.98209858    15
CTC1_L_00165030-04
1 59896U 22939RL  26037.47802083  .00000000  00000+0  00000-0 0  9991
2 59896  85.0000 348.0000 0000000   0.0000 258.0000 13.98209858    16
